[{"OBJECT_NAME":"STARLINK-5488","OBJECT_ID":"2023-094AJ","EPOCH":"2026-03-09T06:10:23.392416","MEAN_MOTION":15.03027168,"ECCENTRICITY":0.00027415,"INCLINATION":43.0024,"RA_OF_ASC_NODE":19.7799,"ARG_OF_PERICENTER":245.5795,"MEAN_ANOMALY":114.4761,"EPHEMERIS_TYPE":0,"CLASSIFICATION_TYPE":"U","NORAD_CAT_ID":57250,"ELEMENT_SET_NO":999,"REV_AT_EPOCH":14720,"BSTAR":0.0043847897,"MEAN_MOTION_DOT":0.00060325,"MEAN_MOTION_DDOT":0},{"OBJECT_NAME":"CZ-6A DEB","OBJECT_ID":"2022-151MR","EPOCH":"2026-03-09T04:38:57.025248","MEAN_MOTION":14.83234999,"ECCENTRICITY":0.00930298,"INCLINATION":98.7155,"RA_OF_ASC_NODE":156.563,"ARG_OF_PERICENTER":210.5568,"MEAN_ANOMALY":149.0205,"EPHEMERIS_TYPE":0,"CLASSIFICATION_TYPE":"U","NORAD_CAT_ID":54591,"ELEMENT_SET_NO":999,"REV_AT_EPOCH":10171,"BSTAR":0.0039988964,"MEAN_MOTION_DOT":0.00035363,"MEAN_MOTION_DDOT":0}]
